start=new Date('2022-07-30T00:00:00.000Z').valueOf();
sats=[{"REV_AT_EPOCH":"6755","SITE":"AFETR","MEAN_ELEMENT_THEORY":"SGP4","MEAN_ANOMALY":"281.7522","TIME_SYSTEM":"UTC","BSTAR":"-0.00001123100000","MEAN_MOTION_DOT":"-0.00000449","OBJECT_TYPE":"PAYLOAD","NORAD_CAT_ID":"48481","SEMIMAJOR_AXIS":"6925.358","INCLINATION":"53.0560","CLASSIFICATION_TYPE":"U","COUNTRY_CODE":"US","FILE":"3524848","ECCENTRICITY":"0.00014290","PERIAPSIS":"546.233","TLE_LINE1":"1 48481U 21040BF  22210.81370413 -.00000449  00000-0 -11231-4 0  9997","PERIOD":"95.592","APOAPSIS":"548.213","ARG_OF_PERICENTER":"78.3627","OBJECT_ID":"2021-040BF","MEAN_MOTION":"15.06396925","MEAN_MOTION_DDOT":"0.0000000000000","GP_ID":"209133169","LAUNCH_DATE":"2021-05-09","TLE_LINE2":"2 48481  53.0560   2.5679 0001429  78.3627 281.7522 15.06396925 67550","REF_FRAME":"TEME","RA_OF_ASC_NODE":"2.5679","EPHEMERIS_TYPE":"0","CENTER_NAME":"EARTH","OBJECT_NAME":"STARLINK-2706","RCS_SIZE":"LARGE","EPOCH":"2022-07-29T19:31:44.036832","DECAY_DATE":null,"ELEMENT_SET_NO":"999"},{"MEAN_MOTION_DDOT":"0.0000000000000","MEAN_MOTION":"15.06392428","LAUNCH_DATE":"2021-05-09","GP_ID":"209132905","APOAPSIS":"548.216","ARG_OF_PERICENTER":"80.0653","TLE_LINE1":"1 48482U 21040BG  22210.71415195 -.00001107  00000-0 -55411-4 0  9994","PERIOD":"95.593","OBJECT_ID":"2021-040BG","CLASSIFICATION_TYPE":"U","INCLINATION":"53.0561","OBJECT_TYPE":"PAYLOAD","SEMIMAJOR_AXIS":"6925.372","NORAD_CAT_ID":"48482","FILE":"3524848","PERIAPSIS":"546.258","ECCENTRICITY":"0.00014140","COUNTRY_CODE":"US","MEAN_ELEMENT_THEORY":"SGP4","SITE":"AFETR","REV_AT_EPOCH":"6754","MEAN_MOTION_DOT":"-0.00001107","BSTAR":"-0.00005541100000","TIME_SYSTEM":"UTC","MEAN_ANOMALY":"280.0495","DECAY_DATE":null,"ELEMENT_SET_NO":"999","OBJECT_NAME":"STARLINK-2525","EPOCH":"2022-07-29T17:08:22.728480","RCS_SIZE":"LARGE","EPHEMERIS_TYPE":"0","RA_OF_ASC_NODE":"2.7400","CENTER_NAME":"EARTH","TLE_LINE2":"2 48482  53.0561   2.7400 0001414  80.0653 280.0495 15.06392428 67543","REF_FRAME":"TEME"},{"REV_AT_EPOCH":"6756","SITE":"AFETR","MEAN_ELEMENT_THEORY":"SGP4","MEAN_ANOMALY":"295.2150","TIME_SYSTEM":"UTC","BSTAR":"-0.00004867100000","MEAN_MOTION_DOT":"-0.00001006","OBJECT_TYPE":"PAYLOAD","NORAD_CAT_ID":"48483","SEMIMAJOR_AXIS":"6925.354","INCLINATION":"53.0554","CLASSIFICATION_TYPE":"U","COUNTRY_CODE":"US","FILE":"3524848","PERIAPSIS":"546.248","ECCENTRICITY":"0.00014020","TLE_LINE1":"1 48483U 21040BH  22210.84315189 -.00001006  00000-0 -48671-4 0  9999","PERIOD":"95.592","ARG_OF_PERICENTER":"64.8985","APOAPSIS":"548.190","OBJECT_ID":"2021-040BH","MEAN_MOTION":"15.06398175","MEAN_MOTION_DDOT":"0.0000000000000","GP_ID":"209131671","LAUNCH_DATE":"2021-05-09","TLE_LINE2":"2 48483  53.0554   2.1587 0001402  64.8985 295.2150 15.06398175 67564","REF_FRAME":"TEME","RA_OF_ASC_NODE":"2.1587","EPHEMERIS_TYPE":"0","CENTER_NAME":"EARTH","OBJECT_NAME":"STARLINK-2531","RCS_SIZE":"LARGE","EPOCH":"2022-07-29T20:14:08.323296","DECAY_DATE":null,"ELEMENT_SET_NO":"999"},{"DECAY_DATE":null,"ELEMENT_SET_NO":"999","OBJECT_NAME":"STARLINK-2696","EPOCH":"2022-07-29T17:19:03.512352","RCS_SIZE":"LARGE","EPHEMERIS_TYPE":"0","RA_OF_ASC_NODE":"3.0639","CENTER_NAME":"EARTH","TLE_LINE2":"2 48484  53.0564   3.0639 0001279  82.6326 277.4808 15.06392776 67544","REF_FRAME":"TEME","MEAN_MOTION_DDOT":"0.0000000000000","MEAN_MOTION":"15.06392776","LAUNCH_DATE":"2021-05-09","GP_ID":"209131921","APOAPSIS":"548.121","ARG_OF_PERICENTER":"82.6326","PERIOD":"95.593","TLE_LINE1":"1 48484U 21040BJ  22210.72156843 -.00001372  00000-0 -73246-4 0  9999","OBJECT_ID":"2021-040BJ","INCLINATION":"53.0564","CLASSIFICATION_TYPE":"U","OBJECT_TYPE":"PAYLOAD","NORAD_CAT_ID":"48484","SEMIMAJOR_AXIS":"6925.371","ECCENTRICITY":"0.00012790","FILE":"3524848","PERIAPSIS":"546.350","COUNTRY_CODE":"US","SITE":"AFETR","MEAN_ELEMENT_THEORY":"SGP4","REV_AT_EPOCH":"6754","BSTAR":"-0.00007324600000","MEAN_MOTION_DOT":"-0.00001372","MEAN_ANOMALY":"277.4808","TIME_SYSTEM":"UTC"},{"EPOCH":"2022-07-29T20:24:45.582048","RCS_SIZE":"LARGE","OBJECT_NAME":"STARLINK-2500","ELEMENT_SET_NO":"999","DECAY_DATE":null,"REF_FRAME":"TEME","TLE_LINE2":"2 48485  53.0553   2.1254 0001273  92.7378 267.3757 15.06399818 67566","CENTER_NAME":"EARTH","EPHEMERIS_TYPE":"0","RA_OF_ASC_NODE":"2.1254","OBJECT_ID":"2021-040BK","ARG_OF_PERICENTER":"92.7378","APOAPSIS":"548.096","TLE_LINE1":"1 48485U 21040BK  22210.85052757 -.00001005  00000-0 -48586-4 0  9995","PERIOD":"95.592","GP_ID":"209132670","LAUNCH_DATE":"2021-05-09","MEAN_MOTION_DDOT":"0.0000000000000","MEAN_MOTION":"15.06399818","BSTAR":"-0.00004858600000","MEAN_MOTION_DOT":"-0.00001005","MEAN_ANOMALY":"267.3757","TIME_SYSTEM":"UTC","SITE":"AFETR","MEAN_ELEMENT_THEORY":"SGP4","REV_AT_EPOCH":"6756","FILE":"3524848","ECCENTRICITY":"0.00012730","PERIAPSIS":"546.333","COUNTRY_CODE":"US","INCLINATION":"53.0553","CLASSIFICATION_TYPE":"U","NORAD_CAT_ID":"48485","OBJECT_TYPE":"PAYLOAD","SEMIMAJOR_AXIS":"6925.349"},{"REF_FRAME":"TEME","TLE_LINE2":"2 48486  53.0565   2.3954 0001348  75.9609 284.1530 15.06406871 67555","CENTER_NAME":"EARTH","EPHEMERIS_TYPE":"0","RA_OF_ASC_NODE":"2.3954","EPOCH":"2022-07-29T18:53:09.442176","RCS_SIZE":"LARGE","OBJECT_NAME":"STARLINK-2496","ELEMENT_SET_NO":"999","DECAY_DATE":null,"MEAN_MOTION_DOT":"0.00000890","BSTAR":"0.00007862000000","TIME_SYSTEM":"UTC","MEAN_ANOMALY":"284.1530","MEAN_ELEMENT_THEORY":"SGP4","SITE":"AFETR","REV_AT_EPOCH":"6755","ECCENTRICITY":"0.00013480","FILE":"3524848","PERIAPSIS":"546.259","COUNTRY_CODE":"US","CLASSIFICATION_TYPE":"U","INCLINATION":"53.0565","NORAD_CAT_ID":"48486","OBJECT_TYPE":"PAYLOAD","SEMIMAJOR_AXIS":"6925.327","OBJECT_ID":"2021-040BL","APOAPSIS":"548.126","ARG_OF_PERICENTER":"75.9609","PERIOD":"95.592","TLE_LINE1":"1 48486U 21040BL  22210.78691484  .00000890  00000-0  78620-4 0  9995","GP_ID":"209133405","LAUNCH_DATE":"2021-05-09","MEAN_MOTION_DDOT":"0.0000000000000","MEAN_MOTION":"15.06406871"},{"DECAY_DATE":null,"ELEMENT_SET_NO":"999","OBJECT_NAME":"STARLINK-2494","RCS_SIZE":"LARGE","EPOCH":"2022-07-29T18:59:50.422848","RA_OF_ASC_NODE":"2.3797","EPHEMERIS_TYPE":"0","CENTER_NAME":"EARTH","TLE_LINE2":"2 48487  53.0552   2.3797 0001277  72.8125 287.3004 15.06394140 67564","REF_FRAME":"TEME","MEAN_MOTION":"15.06394140","MEAN_MOTION_DDOT":"0.0000000000000","LAUNCH_DATE":"2021-05-09","GP_ID":"209132171","PERIOD":"95.593","TLE_LINE1":"1 48487U 21040BM  22210.79155582 -.00001233  00000-0 -63884-4 0  9991","ARG_OF_PERICENTER":"72.8125","APOAPSIS":"548.116","OBJECT_ID":"2021-040BM","OBJECT_TYPE":"PAYLOAD","NORAD_CAT_ID":"48487","SEMIMAJOR_AXIS":"6925.367","INCLINATION":"53.0552","CLASSIFICATION_TYPE":"U","COUNTRY_CODE":"US","PERIAPSIS":"546.347","FILE":"3524848","ECCENTRICITY":"0.00012770","REV_AT_EPOCH":"6756","SITE":"AFETR","MEAN_ELEMENT_THEORY":"SGP4","MEAN_ANOMALY":"287.3004","TIME_SYSTEM":"UTC","BSTAR":"-0.00006388400000","MEAN_MOTION_DOT":"-0.00001233"},{"GP_ID":"209131679","LAUNCH_DATE":"2021-05-15","MEAN_MOTION":"15.06405468","MEAN_MOTION_DDOT":"0.0000000000000","OBJECT_ID":"2021-041A","TLE_LINE1":"1 48553U 21041A   22210.63582362 -.00000697  00000-0 -27883-4 0  9991","PERIOD":"95.592","APOAPSIS":"548.180","ARG_OF_PERICENTER":"68.8675","COUNTRY_CODE":"US","PERIAPSIS":"546.213","FILE":"3524848","ECCENTRICITY":"0.00014200","OBJECT_TYPE":"PAYLOAD","SEMIMAJOR_AXIS":"6925.332","NORAD_CAT_ID":"48553","INCLINATION":"53.0534","CLASSIFICATION_TYPE":"U","MEAN_ANOMALY":"291.2466","TIME_SYSTEM":"UTC","BSTAR":"-0.00002788300000","MEAN_MOTION_DOT":"-0.00000697","REV_AT_EPOCH":"6639","SITE":"AFETR","MEAN_ELEMENT_THEORY":"SGP4","ELEMENT_SET_NO":"999","DECAY_DATE":null,"RCS_SIZE":"LARGE","EPOCH":"2022-07-29T15:15:35.160768","OBJECT_NAME":"STARLINK-2063","CENTER_NAME":"EARTH","RA_OF_ASC_NODE":"293.0842","EPHEMERIS_TYPE":"0","REF_FRAME":"TEME","TLE_LINE2":"2 48553  53.0534 293.0842 0001420  68.8675 291.2466 15.06405468 66395"},{"COUNTRY_CODE":"US","ECCENTRICITY":"0.00011930","FILE":"3524848","PERIAPSIS":"546.386","NORAD_CAT_ID":"48554","OBJECT_TYPE":"PAYLOAD","SEMIMAJOR_AXIS":"6925.348","INCLINATION":"53.0537","CLASSIFICATION_TYPE":"U","MEAN_ANOMALY":"262.3645","TIME_SYSTEM":"UTC","MEAN_MOTION_DOT":"-0.00001375","BSTAR":"-0.00007345400000","REV_AT_EPOCH":"6639","SITE":"AFETR","MEAN_ELEMENT_THEORY":"SGP4","LAUNCH_DATE":"2021-05-15","GP_ID":"209131929","MEAN_MOTION":"15.06400307","MEAN_MOTION_DDOT":"0.0000000000000","OBJECT_ID":"2021-041B","PERIOD":"95.592","TLE_LINE1":"1 48554U 21041B   22210.64319510 -.00001375  00000-0 -73454-4 0  9995","APOAPSIS":"548.039","ARG_OF_PERICENTER":"97.7480","CENTER_NAME":"EARTH","RA_OF_ASC_NODE":"293.0609","EPHEMERIS_TYPE":"0","REF_FRAME":"TEME","TLE_LINE2":"2 48554  53.0537 293.0609 0001193  97.7480 262.3645 15.06400307 66397","ELEMENT_SET_NO":"999","DECAY_DATE":null,"RCS_SIZE":"LARGE","EPOCH":"2022-07-29T15:26:12.056640","OBJECT_NAME":"STARLINK-2139"},{"SITE":"AFETR","MEAN_ELEMENT_THEORY":"SGP4","REV_AT_EPOCH":"6623","BSTAR":"0.00007344600000","MEAN_MOTION_DOT":"0.00000813","MEAN_ANOMALY":"285.4390","TIME_SYSTEM":"UTC","INCLINATION":"53.0551","CLASSIFICATION_TYPE":"U","SEMIMAJOR_AXIS":"6925.329","OBJECT_TYPE":"PAYLOAD","NORAD_CAT_ID":"48555","FILE":"3524608","ECCENTRICITY":"0.00012530","PERIAPSIS":"546.326","COUNTRY_CODE":"US","ARG_OF_PERICENTER":"74.6737","APOAPSIS":"548.062","PERIOD":"95.592","TLE_LINE1":"1 48555U 21041C   22210.53906665  .00000813  00000-0  73446-4 0  9992","OBJECT_ID":"2021-041C","MEAN_MOTION_DDOT":"0.0000000000000","MEAN_MOTION":"15.06406329","GP_ID":"209102975","LAUNCH_DATE":"2021-05-15","TLE_LINE2":"2 48555  53.0551 303.5222 0001253  74.6737 285.4390 15.06406329 66234","REF_FRAME":"TEME","EPHEMERIS_TYPE":"0","RA_OF_ASC_NODE":"303.5222","CENTER_NAME":"EARTH","OBJECT_NAME":"STARLINK-2145","EPOCH":"2022-07-29T12:56:15.358560","RCS_SIZE":"LARGE","DECAY_DATE":null,"ELEMENT_SET_NO":"999"}];
